{"type": "FeatureCollection", "features": [ {"type": "Feature", "properties": {"norad_id": 58662, "name": "TIANMU-1 21", "group": "weather", "lat": 18.289332812459943, "lon": 93.06301440722122, "alt_km": 472.65520417094467, "timestamp": "2025-12-08T03:50:06.649151+00:00", "meta": {"OBJECT_NAME": "TIANMU-1 21", "OBJECT_ID": "2023-208C", "EPOCH": "2025-12-07T05:47:59.533728", "MEAN_MOTION": 15.31376077, "ECCENTRICITY": 0.00059009, "INCLINATION": 97.4382, "RA_OF_ASC_NODE": 94.6168, "ARG_OF_PERICENTER": 283.2817, "MEAN_ANOMALY": 76.7765, "EPHEMERIS_TYPE": 0, "CLASSIFICATION_TYPE": "U", "NORAD_CAT_ID": 58662, "ELEMENT_SET_NO": 999, "REV_AT_EPOCH": 10815, "BSTAR": 0.00055156835, "MEAN_MOTION_DOT": 0.00016662, "MEAN_MOTION_DDOT": 0}, "tle": {"line1": "1 58662U 23208C   25341.24166127  .00016662  00000+0  55157-3 0  9992", "line2": "2 58662  97.4382  94.6168 0005900 283.2817  76.7765 15.31376077108154"}}, "geometry": {"type": "Point", "coordinates": [93.06301440722122, 18.289332812459943]}}, {"type": "Feature", "properties": {"norad_id": 58663, "name": "TIANMU-1 22", "group": "weather", "lat": 5.328502967109045, "lon": 92.56967766885842, "alt_km": 484.56251042704116, "timestamp": "2025-12-08T03:50:06.649162+00:00", "meta": {"OBJECT_NAME": "TIANMU-1 22", "OBJECT_ID": "2023-208D", "EPOCH": "2025-12-07T05:48:01.935648", "MEAN_MOTION": 15.2746525, "ECCENTRICITY": 0.00028541, "INCLINATION": 97.4391, "RA_OF_ASC_NODE": 92.3523, "ARG_OF_PERICENTER": 314.1116, "MEAN_ANOMALY": 45.9888, "EPHEMERIS_TYPE": 0, "CLASSIFICATION_TYPE": "U", "NORAD_CAT_ID": 58663, "ELEMENT_SET_NO": 999, "REV_AT_EPOCH": 10799, "BSTAR": 0.00049573927, "MEAN_MOTION_DOT": 0.00013261, "MEAN_MOTION_DDOT": 0}, "tle": {"line1": "1 58663U 23208D   25341.24168907  .00013261  00000+0  49574-3 0  9999", "line2": "2 58663  97.4391  92.3523 0002854 314.1116  45.9888 15.27465250107998"}}, "geometry": {"type": "Point", "coordinates": [92.56967766885842, 5.328502967109045]}}, {"type": "Feature", "properties": {"norad_id": 58700, "name": "TIANMU-1 15", "group": "weather", "lat": -2.8536896737663975, "lon": -16.72853945427888, "alt_km": 498.14776407003956, "timestamp": "2025-12-08T03:50:06.649173+00:00", "meta": {"OBJECT_NAME": "TIANMU-1 15", "OBJECT_ID": "2024-004A", "EPOCH": "2025-12-07T06:33:28.509696", "MEAN_MOTION": 15.24570025, "ECCENTRICITY": 0.00055074, "INCLINATION": 97.4626, "RA_OF_ASC_NODE": 162.7628, "ARG_OF_PERICENTER": 320.748, "MEAN_ANOMALY": 39.3358, "EPHEMERIS_TYPE": 0, "CLASSIFICATION_TYPE": "U", "NORAD_CAT_ID": 58700, "ELEMENT_SET_NO": 999, "REV_AT_EPOCH": 10651, "BSTAR": 0.00044080144, "MEAN_MOTION_DOT": 0.00010797, "MEAN_MOTION_DDOT": 0}, "tle": {"line1": "1 58700U 24004A   25341.27324664  .00010797  00000+0  44080-3 0  9991", "line2": "2 58700  97.4626 162.7628 0005507 320.7480  39.3358 15.24570025106514"}}, "geometry": {"type": "Point", "coordinates": [-16.72853945427888, -2.8536896737663975]}}, {"type": "Feature", "properties": {"norad_id": 58701, "name": "TIANMU-1 16", "group": "weather", "lat": -82.41972014541255, "lon": -96.75270544284396, "alt_km": 497.9018099409177, "timestamp": "2025-12-08T03:50:06.649183+00:00", "meta": {"OBJECT_NAME": "TIANMU-1 16", "OBJECT_ID": "2024-004B", "EPOCH": "2025-12-07T06:10:42.818592", "MEAN_MOTION": 15.24322065, "ECCENTRICITY": 0.00048215, "INCLINATION": 97.4565, "RA_OF_ASC_NODE": 162.142, "ARG_OF_PERICENTER": 319.6149, "MEAN_ANOMALY": 40.4729, "EPHEMERIS_TYPE": 0, "CLASSIFICATION_TYPE": "U", "NORAD_CAT_ID": 58701, "ELEMENT_SET_NO": 999, "REV_AT_EPOCH": 10651, "BSTAR": 0.00045661588, "MEAN_MOTION_DOT": 0.00011104, "MEAN_MOTION_DDOT": 0}, "tle": {"line1": "1 58701U 24004B   25341.25744003  .00011104  00000+0  45662-3 0  9993", "line2": "2 58701  97.4565 162.1420 0004821 319.6149  40.4729 15.24322065106512"}}, "geometry": {"type": "Point", "coordinates": [-96.75270544284396, -82.41972014541255]}}, {"type": "Feature", "properties": {"norad_id": 58702, "name": "TIANMU-1 17", "group": "weather", "lat": -7.574141127762835, "lon": 164.4458316982547, "alt_km": 494.3049179226409, "timestamp": "2025-12-08T03:50:06.649192+00:00", "meta": {"OBJECT_NAME": "TIANMU-1 17", "OBJECT_ID": "2024-004C", "EPOCH": "2025-12-07T05:48:45.639360", "MEAN_MOTION": 15.2436733, "ECCENTRICITY": 0.00040125, "INCLINATION": 97.4601, "RA_OF_ASC_NODE": 162.5341, "ARG_OF_PERICENTER": 324.0564, "MEAN_ANOMALY": 36.0403, "EPHEMERIS_TYPE": 0, "CLASSIFICATION_TYPE": "U", "NORAD_CAT_ID": 58702, "ELEMENT_SET_NO": 999, "REV_AT_EPOCH": 10650, "BSTAR": 0.00043199317, "MEAN_MOTION_DOT": 0.00010514, "MEAN_MOTION_DDOT": 0}, "tle": {"line1": "1 58702U 24004C   25341.24219490  .00010514  00000+0  43199-3 0  9997", "line2": "2 58702  97.4601 162.5341 0004012 324.0564  36.0403 15.24367330106506"}}, "geometry": {"type": "Point", "coordinates": [164.4458316982547, -7.574141127762835]}}, {"type": "Feature", "properties": {"norad_id": 58703, "name": "TIANMU-1 18", "group": "weather", "lat": 80.54892118696891, "lon": 111.7043089644895, "alt_km": 486.4858510510894, "timestamp": "2025-12-08T03:50:06.649203+00:00", "meta": {"OBJECT_NAME": "TIANMU-1 18", "OBJECT_ID": "2024-004D", "EPOCH": "2025-12-07T06:59:11.953248", "MEAN_MOTION": 15.24358045, "ECCENTRICITY": 0.00033599, "INCLINATION": 97.4617, "RA_OF_ASC_NODE": 162.7769, "ARG_OF_PERICENTER": 325.3328, "MEAN_ANOMALY": 34.769, "EPHEMERIS_TYPE": 0, "CLASSIFICATION_TYPE": "U", "NORAD_CAT_ID": 58703, "ELEMENT_SET_NO": 999, "REV_AT_EPOCH": 10651, "BSTAR": 0.0004016156, "MEAN_MOTION_DOT": 9.765e-05, "MEAN_MOTION_DDOT": 0}, "tle": {"line1": "1 58703U 24004D   25341.29111057  .00009765  00000+0  40162-3 0  9996", "line2": "2 58703  97.4617 162.7769 0003359 325.3328  34.7690 15.24358045106512"}}, "geometry": {"type": "Point", "coordinates": [111.7043089644895, 80.54892118696891]}}, {"type": "Feature", "properties": {"norad_id": 58990, "name": "INSAT-3DS", "group": "weather", "lat": -0.005382670941081459, "lon": -143.23620984194218, "alt_km": 35781.772081559175, "timestamp": "2025-12-08T03:50:06.649214+00:00", "meta": {"OBJECT_NAME": "INSAT-3DS", "OBJECT_ID": "2024-033A", "EPOCH": "2025-12-07T03:45:11.753856", "MEAN_MOTION": 1.00269709, "ECCENTRICITY": 0.00017031, "INCLINATION": 0.0153, "RA_OF_ASC_NODE": 84.809, "ARG_OF_PERICENTER": 178.8494, "MEAN_ANOMALY": 310.9152, "EPHEMERIS_TYPE": 0, "CLASSIFICATION_TYPE": "U", "NORAD_CAT_ID": 58990, "ELEMENT_SET_NO": 999, "REV_AT_EPOCH": 4514, "BSTAR": 0, "MEAN_MOTION_DOT": -1.51e-06, "MEAN_MOTION_DDOT": 0}, "tle": {"line1": "1 58990U 24033A   25341.15638604 -.00000151  00000+0  00000+0 0  9997", "line2": "2 58990   0.0153  84.8090 0001703 178.8494 310.9152  1.00269709 45142"}}, "geometry": {"type": "Point", "coordinates": [-143.23620984194218, -0.005382670941081459]}}, {"type": "Feature", "properties": {"norad_id": 59051, "name": "METEOR-M2 4", "group": "weather", "lat": 41.16891619123303, "lon": 126.81382405188928, "alt_km": 817.0722258449878, "timestamp": "2025-12-08T03:50:06.649225+00:00", "meta": {"OBJECT_NAME": "METEOR-M2 4", "OBJECT_ID": "2024-039A", "EPOCH": "2025-12-07T06:55:45.431328", "MEAN_MOTION": 14.22399992, "ECCENTRICITY": 0.00073449, "INCLINATION": 98.676, "RA_OF_ASC_NODE": 298.2833, "ARG_OF_PERICENTER": 14.0004, "MEAN_ANOMALY": 346.1376, "EPHEMERIS_TYPE": 0, "CLASSIFICATION_TYPE": "U", "NORAD_CAT_ID": 59051, "ELEMENT_SET_NO": 999, "REV_AT_EPOCH": 9198, "BSTAR": 6.3162441e-05, "MEAN_MOTION_DOT": 9.7e-07, "MEAN_MOTION_DDOT": 0}, "tle": {"line1": "1 59051U 24039A   25341.28872027  .00000097  00000+0  63162-4 0  9996", "line2": "2 59051  98.6760 298.2833 0007344  14.0004 346.1376 14.22399992 91987"}}, "geometry": {"type": "Point", "coordinates": [126.81382405188928, 41.16891619123303]}}, {"type": "Feature", "properties": {"norad_id": 60133, "name": "GOES 19", "group": "weather", "lat": 0.004022116824617212, "lon": 59.517205156895265, "alt_km": 35789.42827334153, "timestamp": "2025-12-08T03:50:06.649236+00:00", "meta": {"OBJECT_NAME": "GOES 19", "OBJECT_ID": "2024-119A", "EPOCH": "2025-12-07T06:25:41.380320", "MEAN_MOTION": 1.00270034, "ECCENTRICITY": 0.00014968, "INCLINATION": 0.0092, "RA_OF_ASC_NODE": 88.2406, "ARG_OF_PERICENTER": 215.4395, "MEAN_ANOMALY": 153.8489, "EPHEMERIS_TYPE": 0, "CLASSIFICATION_TYPE": "U", "NORAD_CAT_ID": 60133, "ELEMENT_SET_NO": 999, "REV_AT_EPOCH": 504, "BSTAR": 0, "MEAN_MOTION_DOT": -2.44e-06, "MEAN_MOTION_DDOT": 0}, "tle": {"line1": "1 60133U 24119A   25341.26784005 -.00000244  00000+0  00000+0 0  9996", "line2": "2 60133   0.0092  88.2406 0001496 215.4395 153.8489  1.00270034  5047"}}, "geometry": {"type": "Point", "coordinates": [59.517205156895265, 0.004022116824617212]}}, {"type": "Feature", "properties": {"norad_id": 65815, "name": "FENGYUN 3H", "group": "weather", "lat": 57.031183725351596, "lon": -91.73598113686184, "alt_km": 819.755165839887, "timestamp": "2025-12-08T03:50:06.649249+00:00", "meta": {"OBJECT_NAME": "FENGYUN 3H", "OBJECT_ID": "2025-219A", "EPOCH": "2025-12-07T07:16:05.433888", "MEAN_MOTION": 14.19902374, "ECCENTRICITY": 6.146e-05, "INCLINATION": 98.6577, "RA_OF_ASC_NODE": 281.0115, "ARG_OF_PERICENTER": 79.8095, "MEAN_ANOMALY": 280.3151, "EPHEMERIS_TYPE": 0, "CLASSIFICATION_TYPE": "U", "NORAD_CAT_ID": 65815, "ELEMENT_SET_NO": 999, "REV_AT_EPOCH": 1015, "BSTAR": 0.00012186109, "MEAN_MOTION_DOT": 2.15e-06, "MEAN_MOTION_DDOT": 0}, "tle": {"line1": "1 65815U 25219A   25341.30284067  .00000215  00000+0  12186-3 0  9997", "line2": "2 65815  98.6577 281.0115 0000614  79.8095 280.3151 14.19902374 10153"}}, "geometry": {"type": "Point", "coordinates": [-91.73598113686184, 57.031183725351596]}}]}